1 08820U 76039A   03354.76958406  .00000002  00000-0  10000-3 0  9900
2 08820 109.8371 245.4839 0044415 261.4109  98.1577  6.38664675388978
